[{"OBJECT_NAME":"ONEWEB-0240","OBJECT_ID":"2021-045U","EPOCH":"2026-03-09T14:58:28.098912","MEAN_MOTION":13.1554678,"ECCENTRICITY":0.0001907,"INCLINATION":87.8957,"RA_OF_ASC_NODE":279.0506,"ARG_OF_PERICENTER":95.4095,"MEAN_ANOMALY":264.7253,"EPHEMERIS_TYPE":0,"CLASSIFICATION_TYPE":"U","NORAD_CAT_ID":48785,"ELEMENT_SET_NO":999,"REV_AT_EPOCH":23131,"BSTAR":-0.00017506,"MEAN_MOTION_DOT":-5.3e-7,"MEAN_MOTION_DDOT":0},{"OBJECT_NAME":"THORAD AGENA D DEB","OBJECT_ID":"1970-025MQ","EPOCH":"2026-03-09T15:37:54.017760","MEAN_MOTION":12.93225109,"ECCENTRICITY":0.012376,"INCLINATION":101.6496,"RA_OF_ASC_NODE":316.6245,"ARG_OF_PERICENTER":103.1879,"MEAN_ANOMALY":314.8174,"EPHEMERIS_TYPE":0,"CLASSIFICATION_TYPE":"U","NORAD_CAT_ID":5967,"ELEMENT_SET_NO":999,"REV_AT_EPOCH":62558,"BSTAR":0.000964,"MEAN_MOTION_DOT":2.24e-6,"MEAN_MOTION_DDOT":0}]
